STARLINK-4550           
1 53570U 22101AV  22241.58334491 -.01196869  00000+0 -80308-2 0  9996
2 53570  53.2175 106.2575 0003298   0.5722 186.2520 15.77269414  1303
STARLINK-4584           
1 53571U 22101AW  22241.58334491 -.01196930  00000+0 -80371-2 0  9996
2 53571  53.2175 106.2580 0003313   0.8658 185.4541 15.77253062  1305
STARLINK-4555           
1 53572U 22101AX  22241.58334491 -.01196460  00000+0 -80033-2 0  9990
2 53572  53.2175 106.2535 0003148   7.5880 181.2256 15.77339098  1304
STARLINK-4547           
1 53573U 22101AY  22241.58334491 -.01197063  00000+0 -80198-2 0  9993
2 53573  53.2175 106.2550 0003167   6.7339 181.0797 15.77305705  1309
STARLINK-4559           
1 53574U 22101AZ  22241.58334491 -.01197174  00000+0 -79959-2 0  9990
2 53574  53.2175 106.2516 0003219   5.6464 184.1642 15.77373594  1301
STARLINK-4551           
1 53575U 22101BA  22241.58334491 -.01196983  00000+0 -80129-2 0  9999
2 53575  53.2175 106.2540 0003264   6.0202 182.2975 15.77321847  1306
STARLINK-4581           
1 53576U 22101BB  22241.58334491 -.01197219  00000+0 -79903-2 0  9991
2 53576  53.2175 106.2506 0003140   6.5965 183.7093 15.77391152  1306
STARLINK-4553           
1 53577U 22101BC  22241.58334491 -.01197189  00000+0 -80016-2 0  9995
2 53577  53.2175 106.2520 0003291   5.6000 183.7094 15.77357100  1306
STARLINK-4556           
1 53578U 22101BD  22241.58334491 -.01196579  00000+0 -79804-2 0  9991
2 53578  53.2175 106.2496 0003085   5.4533 185.3595 15.77406044  1305
STARLINK-4580           
1 53579U 22101BE  22241.58334491 -.01196781  00000+0 -79772-2 0  9991
2 53579  53.2175 106.2479 0003276   1.3632 189.9847 15.77416583  1303
FALCON 9 DEB            
1 53580U 22101BF  22241.48736332  .00605916  18584-3  69572-3 0  9992
2 53580  53.2186 106.0067 0061168  79.0704 281.7204 16.04442591  1569
FALCON 9 DEB            
1 53581U 22101BG  22241.04825609  .00564401  16155-3  66170-3 0  9997
2 53581  53.2162 108.2399 0057641  78.9661 281.7848 16.04552571  1493
FALCON 9 DEB            
1 53582U 22101BH  22241.35310208  .00531778  14694-3  57501-3 0  9991
2 53582  53.2153 106.5759 0054876  74.3193 286.3887 16.06062525  1549
FALCON 9 DEB            
1 53583U 22101BJ  22241.35287084  .00569251  16811-3  61284-3 0  9990
2 53583  53.2163 106.5741 0055394  75.9678 284.7506 16.06066404  1543
CHUANGXIN 16 (CX-16)    
1 53586U 22102A   22241.64920762  .00001172  00000+0  10074-3 0  9996
2 53586  28.9993 325.8932 0004655 319.1741  40.8506 14.91643726   980
BEIJING-3B              
1 53587U 22103A   22241.48449162  .00000466  00000+0  57590-4 0  9990
2 53587  97.9420 310.1053 0013592 246.4744 113.5062 14.87444931   806
