OBJECT_NAME,OBJECT_ID,EPOCH,MEAN_MOTION,ECCENTRICITY,INCLINATION,RA_OF_ASC_NODE,ARG_OF_PERICENTER,MEAN_ANOMALY,EPHEMERIS_TYPE,CLASSIFICATION_TYPE,NORAD_CAT_ID,ELEMENT_SET_NO,REV_AT_EPOCH,BSTAR,MEAN_MOTION_DOT,MEAN_MOTION_DDOT
STARLINK-4550,2022-101AV,2022-08-29T14:00:01.000224,15.77269414,.0003298,53.2175,106.2575,0.5722,186.2520,0,U,53570,999,130,-.80308E-2,-.1196869E-1,0
STARLINK-4584,2022-101AW,2022-08-29T14:00:01.000224,15.77253062,.0003313,53.2175,106.2580,0.8658,185.4541,0,U,53571,999,130,-.80371E-2,-.119693E-1,0
STARLINK-4555,2022-101AX,2022-08-29T14:00:01.000224,15.77339098,.0003148,53.2175,106.2535,7.5880,181.2256,0,U,53572,999,130,-.80033E-2,-.119646E-1,0
STARLINK-4547,2022-101AY,2022-08-29T14:00:01.000224,15.77305705,.0003167,53.2175,106.2550,6.7339,181.0797,0,U,53573,999,130,-.80198E-2,-.1197063E-1,0
STARLINK-4559,2022-101AZ,2022-08-29T14:00:01.000224,15.77373594,.0003219,53.2175,106.2516,5.6464,184.1642,0,U,53574,999,130,-.79959E-2,-.1197174E-1,0
STARLINK-4551,2022-101BA,2022-08-29T14:00:01.000224,15.77321847,.0003264,53.2175,106.2540,6.0202,182.2975,0,U,53575,999,130,-.80129E-2,-.1196983E-1,0
STARLINK-4581,2022-101BB,2022-08-29T14:00:01.000224,15.77391152,.000314,53.2175,106.2506,6.5965,183.7093,0,U,53576,999,130,-.79903E-2,-.1197219E-1,0
STARLINK-4553,2022-101BC,2022-08-29T14:00:01.000224,15.77357100,.0003291,53.2175,106.2520,5.6000,183.7094,0,U,53577,999,130,-.80016E-2,-.1197189E-1,0
STARLINK-4556,2022-101BD,2022-08-29T14:00:01.000224,15.77406044,.0003085,53.2175,106.2496,5.4533,185.3595,0,U,53578,999,130,-.79804E-2,-.1196579E-1,0
STARLINK-4580,2022-101BE,2022-08-29T14:00:01.000224,15.77416583,.0003276,53.2175,106.2479,1.3632,189.9847,0,U,53579,999,130,-.79772E-2,-.1196781E-1,0
FALCON 9 DEB,2022-101BF,2022-08-29T11:41:48.190848,16.04442591,.0061168,53.2186,106.0067,79.0704,281.7204,0,U,53580,999,156,.69572E-3,.605916E-2,.18584E-3
FALCON 9 DEB,2022-101BG,2022-08-29T01:09:29.326176,16.04552571,.0057641,53.2162,108.2399,78.9661,281.7848,0,U,53581,999,149,.6617E-3,.564401E-2,.16155E-3
FALCON 9 DEB,2022-101BH,2022-08-29T08:28:28.019712,16.06062525,.0054876,53.2153,106.5759,74.3193,286.3887,0,U,53582,999,154,.57501E-3,.531778E-2,.14694E-3
FALCON 9 DEB,2022-101BJ,2022-08-29T08:28:08.040576,16.06066404,.0055394,53.2163,106.5741,75.9678,284.7506,0,U,53583,999,154,.61284E-3,.569251E-2,.16811E-3
CHUANGXIN 16 (CX-16),2022-102A,2022-08-29T15:34:51.538368,14.91643726,.0004655,28.9993,325.8932,319.1741,40.8506,0,U,53586,999,98,.10074E-3,.1172E-4,0
BEIJING-3B,2022-103A,2022-08-29T11:37:40.075968,14.87444931,.0013592,97.9420,310.1053,246.4744,113.5062,0,U,53587,999,80,.5759E-4,.466E-5,0
